OPTICUBE 04             
1 41851U 16067D   24215.42421687  .00005334  00000+0  39863-3 0  9993
2 41851  98.0779  22.3182 0017388 261.0930  98.8326 15.03136691422185
AEROCUBE 8D             
1 41852U 16067E   24215.46483313  .00009417  00000+0  60585-3 0  9993
2 41852  98.1101  27.2486 0004020 322.1229  37.9715 15.08619872422375
AEROCUBE 8C             
1 41853U 16067F   24215.47981183  .00010168  00000+0  65427-3 0  9998
2 41853  98.0917  25.7283 0006912 239.2047 120.8500 15.08577542422366
PROMETHEUS 2-1          
1 41854U 16067G   24215.43948479  .00022143  00000+0  10638-2 0  9995
2 41854  98.1009  33.8327 0011577 256.9190 103.0750 15.18798752422759
PROMETHEUS 2-3          
1 41855U 16067H   24215.43683979  .00022068  00000+0  10620-2 0  9994
2 41855  98.0941  33.2735 0009719 267.4010  92.6110 15.18758311422754
AALTO-1                 
1 42775U 17036L   24215.61343820  .00232833  00000+0  10834-2 0  9991
2 42775  97.0944 246.2552 0002745 119.5215 240.6329 15.82747635396415
CORVUS BC2              
1 42846U 17042X   24215.48193194  .00004752  00000+0  40516-3 0  9997
2 42846  97.3755  38.0206 0006687 262.6041  97.4422 14.98166219384379
CORVUS BC1              
1 42847U 17042Y   24215.57177224  .00005477  00000+0  46436-3 0  9996
2 42847  97.3726  38.5135 0007120 257.5561 102.4865 14.98315616384406
MIRATA                  
1 43015U 17073C   24215.63158680  .00028746  00000+0  12778-2 0  9995
2 43015  97.5896  99.8901 0165345 102.0053 259.9762 15.09954407363332
MAKERSAT 0              
1 43016U 17073D   24215.62182608  .00016965  00000+0  92966-3 0  9990
2 43016  97.5769  93.3375 0193854 125.1366 236.8195 14.99541549362874
GOMX-4B                 
1 43196U 18015E   24215.45796006  .00102565  00000+0  79949-3 0  9998
2 43196  97.6042  32.8738 0006319 150.4264 209.7357 15.71364017362778
GOMX-4A                 
1 43197U 18015F   24215.58565932  .00364180  55034-4  91172-3 0  9992
2 43197  97.5901  39.3314 0003647 193.4384 166.6795 15.95712878363221
SIRION PATHFINDER-2     
1 43759U 18099B   24215.42809014  .00007536  00000+0  55762-3 0  9995
2 43759  97.5274 270.2800 0012401 128.1410 232.0935 15.03384508309450
CORVUS BC4              
1 43767U 18099K   24215.61638474  .00006610  00000+0  49940-3 0  9998
2 43767  97.5117 267.5337 0010943 177.8724 182.2549 15.02653840309361
MOVE-II                 
1 43780U 18099Y   24215.59794875  .00027787  00000+0  13622-2 0  9993
2 43780  97.5188 278.2175 0007341 169.2605 190.8787 15.18071870309963
SPACEBEE-7              
1 43816U 18099BL  24215.12182079  .00020564  00000+0  11597-2 0  9994
2 43816  97.5463 278.3029 0011006 128.4916 231.7304 15.13149229309355
SPACEBEE-6              
1 43818U 18099BN  24215.14316317  .00052080  00000+0  19493-2 0  9993
2 43818  97.5385 284.5213 0008915 131.7321 228.4681 15.27085932309914
SHIELDS 1               
1 43850U 18104B   24215.56231355  .00015691  00000+0  40108-3 0  9995
2 43850  85.0202 251.5946 0008131 248.1062 111.9325 15.39285210313293
SONATE                  
1 44400U 19038Q   24215.54397388  .00025462  00000+0  71457-3 0  9999
2 44400  97.7127 211.7879 0012405 304.0860  55.9205 15.36475666281191
LUCKY-7                 
1 44406U 19038W   24215.56905682  .00050658  00000+0  94150-3 0  9999
2 44406  97.7005 216.6613 0008182 274.1190  85.9124 15.48714257281538
DUCHIFAT-3              
1 44854U 19089C   24215.45423428  .00020684  00000+0  99281-3 0  9999
2 44854  36.9560 127.7469 0003219 143.3650 216.7318 15.18136742255300
M2 PATHFINDER           
1 45727U 20037E   24215.49609966  .00005207  00000+0  45053-3 0  9993
2 45727  97.7779  31.7023 0010262 334.5505  25.5210 14.97566299222879
NETSAT-4                
1 46504U 20068U   24215.61150446  .00011438  00000+0  59289-3 0  9998
2 46504  97.8079 174.0510 0009370 189.1024 171.0039 15.16309135211204
NETSAT-3                
1 46505U 20068V   24215.41621148  .00011756  00000+0  62031-3 0  9991
2 46505  97.8052 173.2975 0008343 197.4679 162.6266 15.15682591211161
NETSAT-1                
1 46506U 20068W   24215.45362343  .00009467  00000+0  52701-3 0  9994
2 46506  97.8071 172.6957 0006855 208.7821 151.3033 15.13847793211125
NETSAT-2                
1 46507U 20068X   24215.36670618  .00012240  00000+0  63530-3 0  9997
2 46507  97.8058 173.4155 0005949 210.4641 149.6246 15.16268100211110
WILDTRACKCUBE-SIMBA     
1 47941U 21022K   24215.58347031  .00018469  00000+0  78563-3 0  9996
2 47941  97.4551 111.9710 0014081 351.2565   8.8424 15.22975808185523
GRBALPHA                
1 47959U 21022AD  24215.61998662  .00027639  00000+0  10058-2 0  9994
2 47959  97.4549 114.1816 0011915 344.0110  16.0751 15.28133065184496
BCCSAT-1                
1 48041U 21022AK  24215.49327922  .00145870  00000+0  18058-2 0  9994
2 48041  97.4545 124.5132 0001780 170.1708 189.9583 15.59590843185120
BEESAT-7                
1 48084U 21022AN  24215.02559218  .01763760  19522-2  34551-2 0  9998
2 48084  97.4483 126.5750 0014326 154.2113 205.9882 16.00446772184970
BEESAT-8                
1 48085U 21022AP  24215.46542643  .00035506  00000+0  10190-2 0  9991
2 48085  97.4729 118.1148 0008930 333.4746  26.6039 15.35740304184976
LEDSAT                  
1 49069U 21073D   24215.16263707  .00022883  00000+0  86883-3 0  9995
2 49069  97.4355 286.0356 0019719 121.6208 238.6958 15.26651723163469
ROBUSTA-1F (MTCUBE 2)   
1 53109U 22080E   24215.31847040 -.00000003  00000+0  00000+0 0  9993
2 53109  70.1224 176.0823 0007790  77.8214 282.3318  6.42584345 48128
SITRO-AIS 5 (KATYS)     
1 57176U 23091L   24215.57769219  .00009943  00000+0  62405-3 0  9995
2 57176  97.6094 267.3817 0016145 326.5055  33.5151 15.09388313 60498
SITRO-AIS 6 (CHIRKIN)   
1 57192U 23091AC  24215.56104848  .00010488  00000+0  65697-3 0  9995
2 57192  97.6098 267.3926 0015987 326.3647  33.6565 15.09448081 60498
SITRO-AIS 8 (ANOKHIN)   
1 57193U 23091AD  24215.58453796  .00009915  00000+0  61497-3 0  9994
2 57193  97.6093 267.5064 0015599 327.4612  32.5654 15.09830651 60509
SITRO-AIS 7 (FARTUSHNIY)
1 57194U 23091AE  24215.56749756  .00010084  00000+0  63288-3 0  9996
2 57194  97.6094 267.3768 0015871 326.9267  33.0968 15.09392311 60491
SITRO-AIS 10 (BURDAEV)  
1 57199U 23091AK  24215.56454972  .00012117  00000+0  71361-3 0  9994
2 57199  97.6111 268.5281 0010695 314.9056  45.1305 15.11715650 60566
SITRO-AIS 9 (SHCHUKIN)  
1 57201U 23091AM  24215.56342370  .00012286  00000+0  72391-3 0  9997
2 57201  97.6107 268.5036 0010637 314.8139  45.2226 15.11693753 60562
SITRO-AIS 12 (SMIRENNIY)
1 57204U 23091AQ  24215.58620697  .00011036  00000+0  64728-3 0  9990
2 57204  97.6113 268.6761 0010450 308.1523  51.8765 15.11888307 60577
SITRO-AIS 11 (SHEFFER)  
1 57208U 23091AU  24215.50307220  .00013040  00000+0  76199-3 0  9992
2 57208  97.6112 268.6206 0010390 308.7161  51.3140 15.11980001 60566
ROBUSTA-1E (ENSO)       
1 58470U 23185J   24215.61894511  .00021382  00000+0  85521-3 0  9991
2 58470  97.4242 281.8983 0013469 116.3324 243.9298 15.25029185 37214
SITRO-AIS 29            
1 59052U 24039B   24215.56119598  .00029520  00000+0  10032-2 0  9992
2 59052  97.3933 177.2645 0019117  60.1915 300.1224 15.30244849 23681
SITRO-AIS 30            
1 59053U 24039C   24215.56270484  .00027319  00000+0  93135-3 0  9995
2 59053  97.3930 177.2577 0019268  60.7724 299.5440 15.30155132 23670
SITRO-AIS 31            
1 59054U 24039D   24215.61719432  .00029984  00000+0  10166-2 0  9995
2 59054  97.3932 177.3383 0019134  60.5510 299.7636 15.30316359 23705
SITRO-AIS 33            
1 59055U 24039E   24215.60502963  .00028130  00000+0  95004-3 0  9991
2 59055  97.3934 177.3609 0018885  61.2423 299.0712 15.30460426 23693
SITRO-AIS 35            
1 59056U 24039F   24215.60076953  .00028308  00000+0  95480-3 0  9992
2 59056  97.3931 177.3633 0018633  61.6840 298.6278 15.30505972 23694
SITRO-AIS 32            
1 59057U 24039G   24215.61098538  .00028529  00000+0  96709-3 0  9997
2 59057  97.3934 177.3518 0018767  61.7805 298.5328 15.30340463 23697
SITRO-AIS 34            
1 59058U 24039H   24215.60572523  .00029077  00000+0  98311-3 0  9998
2 59058  97.3936 177.3616 0018882  61.5454 298.7687 15.30417860 23691
SITRO-AIS 36            
1 59059U 24039J   24215.59455644  .00028374  00000+0  95598-3 0  9994
2 59059  97.3932 177.3719 0018476  61.7347 298.5755 15.30544020 23697
SITRO-AIS 49            
1 59060U 24039K   24215.59589463  .00028217  00000+0  95288-3 0  9995
2 59060  97.3934 177.3704 0018485  61.3310 298.9787 15.30470619 23692
SITRO-AIS 50            
1 59061U 24039L   24215.58250666  .00030920  00000+0  10369-2 0  9995
2 59061  97.3932 177.3863 0018359  61.6071 298.7018 15.30680181 23696
SITRO-AIS 51            
1 59062U 24039M   24215.58241985  .00030091  00000+0  10097-2 0  9997
2 59062  97.3932 177.3871 0018379  61.3483 298.9603 15.30666262 23698
SITRO-AIS 52            
1 59063U 24039N   24215.57351638  .00030638  00000+0  10240-2 0  9991
2 59063  97.3933 177.4006 0018299  61.5278 298.7804 15.30791594 23694
SITRO-AIS 25            
1 59066U 24039R   24215.56018160  .00005019  00000+0  47647-3 0  9990
2 59066  95.4009 128.7838 0170163 182.6897 177.3427 14.83382486 22980
SITRO-AIS 26            
1 59067U 24039S   24215.56071634  .00004878  00000+0  46368-3 0  9997
2 59067  95.4009 128.7825 0170092 182.7260 177.3051 14.83346773 22985
SITRO-AIS 27            
1 59068U 24039T   24215.61365907  .00004715  00000+0  44669-3 0  9995
2 59068  95.4012 128.8456 0169691 182.3338 177.7110 14.83525811 22999
SITRO-AIS 28            
1 59071U 24039U   24215.60979833  .00004853  00000+0  45940-3 0  9993
2 59071  95.4012 128.8505 0169544 182.3135 177.7321 14.83569165 22994
GRBBETA                 
1 60237U 24128C   24215.57603039  .00005410  00000+0  48307-3 0  9996
2 60237  61.9947  79.5767 0011011 299.5576  60.4414 14.97053716  3548
